CCSDS_OMM_VERS = 2.0
CREATION_DATE  = 
ORIGINATOR     = 

OBJECT_NAME    = STARLINK-36523
OBJECT_ID      = 2026-008R
CENTER_NAME    = EARTH
REF_FRAME      = TEME
TIME_SYSTEM    = UTC
MEAN_ELEMENT_THEORY = SGP/SGP4

EPOCH          = 2026-01-25T20:00:03.000384
MEAN_MOTION    = 15.90721320
ECCENTRICITY   = .0001524
INCLINATION    = 43.0012
RA_OF_ASC_NODE = 93.8661
ARG_OF_PERICENTER = 277.7585
MEAN_ANOMALY   = 40.5798

EPHEMERIS_TYPE = 0
CLASSIFICATION_TYPE = U
NORAD_CAT_ID   = 67460
ELEMENT_SET_NO = 999
REV_AT_EPOCH   = 292
BSTAR          = -.44245E-2
MEAN_MOTION_DOT = -.126702E-1
MEAN_MOTION_DDOT = 0

CCSDS_OMM_VERS = 2.0
CREATION_DATE  = 
ORIGINATOR     = 

OBJECT_NAME    = STARLINK-36522
OBJECT_ID      = 2026-008S
CENTER_NAME    = EARTH
REF_FRAME      = TEME
TIME_SYSTEM    = UTC
MEAN_ELEMENT_THEORY = SGP/SGP4

EPOCH          = 2026-01-25T20:00:03.000384
MEAN_MOTION    = 15.90760140
ECCENTRICITY   = .0001547
INCLINATION    = 43.0014
RA_OF_ASC_NODE = 93.8589
ARG_OF_PERICENTER = 277.1490
MEAN_ANOMALY   = 44.0363

EPHEMERIS_TYPE = 0
CLASSIFICATION_TYPE = U
NORAD_CAT_ID   = 67461
ELEMENT_SET_NO = 999
REV_AT_EPOCH   = 290
BSTAR          = -.44524E-2
MEAN_MOTION_DOT = -.1276408E-1
MEAN_MOTION_DDOT = 0

CCSDS_OMM_VERS = 2.0
CREATION_DATE  = 
ORIGINATOR     = 

OBJECT_NAME    = STARLINK-36504
OBJECT_ID      = 2026-008T
CENTER_NAME    = EARTH
REF_FRAME      = TEME
TIME_SYSTEM    = UTC
MEAN_ELEMENT_THEORY = SGP/SGP4

EPOCH          = 2026-01-25T20:00:03.000384
MEAN_MOTION    = 15.90799878
ECCENTRICITY   = .0001546
INCLINATION    = 43.0014
RA_OF_ASC_NODE = 93.8510
ARG_OF_PERICENTER = 275.8611
MEAN_ANOMALY   = 48.4948

EPHEMERIS_TYPE = 0
CLASSIFICATION_TYPE = U
NORAD_CAT_ID   = 67462
ELEMENT_SET_NO = 999
REV_AT_EPOCH   = 292
BSTAR          = -.45E-2
MEAN_MOTION_DOT = -.1290843E-1
MEAN_MOTION_DDOT = 0

CCSDS_OMM_VERS = 2.0
CREATION_DATE  = 
ORIGINATOR     = 

OBJECT_NAME    = STARLINK-36505
OBJECT_ID      = 2026-008U
CENTER_NAME    = EARTH
REF_FRAME      = TEME
TIME_SYSTEM    = UTC
MEAN_ELEMENT_THEORY = SGP/SGP4

EPOCH          = 2026-01-25T20:00:03.000384
MEAN_MOTION    = 15.90829253
ECCENTRICITY   = .0001546
INCLINATION    = 43.0017
RA_OF_ASC_NODE = 93.8429
ARG_OF_PERICENTER = 276.1921
MEAN_ANOMALY   = 51.4505

EPHEMERIS_TYPE = 0
CLASSIFICATION_TYPE = U
NORAD_CAT_ID   = 67463
ELEMENT_SET_NO = 999
REV_AT_EPOCH   = 290
BSTAR          = -.45253E-2
MEAN_MOTION_DOT = -.1299015E-1
MEAN_MOTION_DDOT = 0

CCSDS_OMM_VERS = 2.0
CREATION_DATE  = 
ORIGINATOR     = 

OBJECT_NAME    = STARLINK-36421
OBJECT_ID      = 2026-008V
CENTER_NAME    = EARTH
REF_FRAME      = TEME
TIME_SYSTEM    = UTC
MEAN_ELEMENT_THEORY = SGP/SGP4

EPOCH          = 2026-01-25T20:00:03.000384
MEAN_MOTION    = 15.90858357
ECCENTRICITY   = .0001575
INCLINATION    = 43.0016
RA_OF_ASC_NODE = 93.8345
ARG_OF_PERICENTER = 278.9114
MEAN_ANOMALY   = 52.1039

EPHEMERIS_TYPE = 0
CLASSIFICATION_TYPE = U
NORAD_CAT_ID   = 67464
ELEMENT_SET_NO = 999
REV_AT_EPOCH   = 290
BSTAR          = -.45678E-2
MEAN_MOTION_DOT = -.1311548E-1
MEAN_MOTION_DDOT = 0

CCSDS_OMM_VERS = 2.0
CREATION_DATE  = 
ORIGINATOR     = 

OBJECT_NAME    = STARLINK-36437
OBJECT_ID      = 2026-008W
CENTER_NAME    = EARTH
REF_FRAME      = TEME
TIME_SYSTEM    = UTC
MEAN_ELEMENT_THEORY = SGP/SGP4

EPOCH          = 2026-01-25T20:00:03.000384
MEAN_MOTION    = 15.90889174
ECCENTRICITY   = .0001637
INCLINATION    = 43.0015
RA_OF_ASC_NODE = 93.8270
ARG_OF_PERICENTER = 276.0827
MEAN_ANOMALY   = 57.7232

EPHEMERIS_TYPE = 0
CLASSIFICATION_TYPE = U
NORAD_CAT_ID   = 67465
ELEMENT_SET_NO = 999
REV_AT_EPOCH   = 290
BSTAR          = -.45921E-2
MEAN_MOTION_DOT = -.1319608E-1
MEAN_MOTION_DDOT = 0

CCSDS_OMM_VERS = 2.0
CREATION_DATE  = 
ORIGINATOR     = 

OBJECT_NAME    = STARLINK-36520
OBJECT_ID      = 2026-008X
CENTER_NAME    = EARTH
REF_FRAME      = TEME
TIME_SYSTEM    = UTC
MEAN_ELEMENT_THEORY = SGP/SGP4

EPOCH          = 2026-01-25T20:00:03.000384
MEAN_MOTION    = 15.90918464
ECCENTRICITY   = .0001594
INCLINATION    = 43.0013
RA_OF_ASC_NODE = 93.8189
ARG_OF_PERICENTER = 274.3264
MEAN_ANOMALY   = 62.6097

EPHEMERIS_TYPE = 0
CLASSIFICATION_TYPE = U
NORAD_CAT_ID   = 67466
ELEMENT_SET_NO = 999
REV_AT_EPOCH   = 290
BSTAR          = -.46212E-2
MEAN_MOTION_DOT = -.1328739E-1
MEAN_MOTION_DDOT = 0

CCSDS_OMM_VERS = 2.0
CREATION_DATE  = 
ORIGINATOR     = 

OBJECT_NAME    = STARLINK-36425
OBJECT_ID      = 2026-008Y
CENTER_NAME    = EARTH
REF_FRAME      = TEME
TIME_SYSTEM    = UTC
MEAN_ELEMENT_THEORY = SGP/SGP4

EPOCH          = 2026-01-25T20:00:03.000384
MEAN_MOTION    = 15.90947037
ECCENTRICITY   = .0001553
INCLINATION    = 43.0014
RA_OF_ASC_NODE = 93.8118
ARG_OF_PERICENTER = 279.3100
MEAN_ANOMALY   = 60.4491

EPHEMERIS_TYPE = 0
CLASSIFICATION_TYPE = U
NORAD_CAT_ID   = 67467
ELEMENT_SET_NO = 999
REV_AT_EPOCH   = 290
BSTAR          = -.46267E-2
MEAN_MOTION_DOT = -.1331847E-1
MEAN_MOTION_DDOT = 0

CCSDS_OMM_VERS = 2.0
CREATION_DATE  = 
ORIGINATOR     = 

OBJECT_NAME    = STARLINK-36414
OBJECT_ID      = 2026-008Z
CENTER_NAME    = EARTH
REF_FRAME      = TEME
TIME_SYSTEM    = UTC
MEAN_ELEMENT_THEORY = SGP/SGP4

EPOCH          = 2026-01-25T20:00:03.000384
MEAN_MOTION    = 15.92897980
ECCENTRICITY   = .0001737
INCLINATION    = 43.0015
RA_OF_ASC_NODE = 93.7010
ARG_OF_PERICENTER = 279.5191
MEAN_ANOMALY   = 103.9435

EPHEMERIS_TYPE = 0
CLASSIFICATION_TYPE = U
NORAD_CAT_ID   = 67468
ELEMENT_SET_NO = 999
REV_AT_EPOCH   = 290
BSTAR          = -.3812E-2
MEAN_MOTION_DOT = -.1371425E-1
MEAN_MOTION_DDOT = .54311E-3

CCSDS_OMM_VERS = 2.0
CREATION_DATE  = 
ORIGINATOR     = 

OBJECT_NAME    = STARLINK-36441
OBJECT_ID      = 2026-008AA
CENTER_NAME    = EARTH
REF_FRAME      = TEME
TIME_SYSTEM    = UTC
MEAN_ELEMENT_THEORY = SGP/SGP4

EPOCH          = 2026-01-25T20:00:03.000384
MEAN_MOTION    = 15.93015211
ECCENTRICITY   = .000165
INCLINATION    = 43.0015
RA_OF_ASC_NODE = 93.6545
ARG_OF_PERICENTER = 283.9259
MEAN_ANOMALY   = 117.6875

EPHEMERIS_TYPE = 0
CLASSIFICATION_TYPE = U
NORAD_CAT_ID   = 67469
ELEMENT_SET_NO = 999
REV_AT_EPOCH   = 290
BSTAR          = -.40576E-2
MEAN_MOTION_DOT = -.1467633E-1
MEAN_MOTION_DDOT = .6157E-3

CCSDS_OMM_VERS = 2.0
CREATION_DATE  = 
ORIGINATOR     = 

OBJECT_NAME    = STARLINK-36454
OBJECT_ID      = 2026-008AB
CENTER_NAME    = EARTH
REF_FRAME      = TEME
TIME_SYSTEM    = UTC
MEAN_ELEMENT_THEORY = SGP/SGP4

EPOCH          = 2026-01-25T20:00:03.000384
MEAN_MOTION    = 15.93063966
ECCENTRICITY   = .0001518
INCLINATION    = 43.0012
RA_OF_ASC_NODE = 93.6351
ARG_OF_PERICENTER = 282.3068
MEAN_ANOMALY   = 126.9221

EPHEMERIS_TYPE = 0
CLASSIFICATION_TYPE = U
NORAD_CAT_ID   = 67470
ELEMENT_SET_NO = 999
REV_AT_EPOCH   = 290
BSTAR          = -.41709E-2
MEAN_MOTION_DOT = -.1511913E-1
MEAN_MOTION_DDOT = .65054E-3

CCSDS_OMM_VERS = 2.0
CREATION_DATE  = 
ORIGINATOR     = 

OBJECT_NAME    = STARLINK-36334
OBJECT_ID      = 2026-008AC
CENTER_NAME    = EARTH
REF_FRAME      = TEME
TIME_SYSTEM    = UTC
MEAN_ELEMENT_THEORY = SGP/SGP4

EPOCH          = 2026-01-25T20:00:03.000384
MEAN_MOTION    = 15.92961673
ECCENTRICITY   = .0001611
INCLINATION    = 43.0014
RA_OF_ASC_NODE = 93.6788
ARG_OF_PERICENTER = 279.8623
MEAN_ANOMALY   = 112.1658

EPHEMERIS_TYPE = 0
CLASSIFICATION_TYPE = U
NORAD_CAT_ID   = 67471
ELEMENT_SET_NO = 999
REV_AT_EPOCH   = 290
BSTAR          = -.39589E-2
MEAN_MOTION_DOT = -.1428384E-1
MEAN_MOTION_DDOT = .58553E-3

CCSDS_OMM_VERS = 2.0
CREATION_DATE  = 
ORIGINATOR     = 

OBJECT_NAME    = STARLINK-36269
OBJECT_ID      = 2026-008AD
CENTER_NAME    = EARTH
REF_FRAME      = TEME
TIME_SYSTEM    = UTC
MEAN_ELEMENT_THEORY = SGP/SGP4

EPOCH          = 2026-01-25T20:00:03.000384
MEAN_MOTION    = 15.93120729
ECCENTRICITY   = .0001429
INCLINATION    = 43.0011
RA_OF_ASC_NODE = 93.6084
ARG_OF_PERICENTER = 283.0477
MEAN_ANOMALY   = 136.5580

EPHEMERIS_TYPE = 0
CLASSIFICATION_TYPE = U
NORAD_CAT_ID   = 67472
ELEMENT_SET_NO = 999
REV_AT_EPOCH   = 292
BSTAR          = -.43487E-2
MEAN_MOTION_DOT = -.1580197E-1
MEAN_MOTION_DDOT = .70596E-3

CCSDS_OMM_VERS = 2.0
CREATION_DATE  = 
ORIGINATOR     = 

OBJECT_NAME    = STARLINK-36408
OBJECT_ID      = 2026-008AE
CENTER_NAME    = EARTH
REF_FRAME      = TEME
TIME_SYSTEM    = UTC
MEAN_ELEMENT_THEORY = SGP/SGP4

EPOCH          = 2026-01-25T20:00:03.000384
MEAN_MOTION    = 15.93171625
ECCENTRICITY   = .0001415
INCLINATION    = 43.0014
RA_OF_ASC_NODE = 93.5696
ARG_OF_PERICENTER = 285.3582
MEAN_ANOMALY   = 149.6996

EPHEMERIS_TYPE = 0
CLASSIFICATION_TYPE = U
NORAD_CAT_ID   = 67473
ELEMENT_SET_NO = 999
REV_AT_EPOCH   = 292
BSTAR          = -.45998E-2
MEAN_MOTION_DOT = -.1674705E-1
MEAN_MOTION_DDOT = .7861E-3

CCSDS_OMM_VERS = 2.0
CREATION_DATE  = 
ORIGINATOR     = 

OBJECT_NAME    = ALSAT-3A
OBJECT_ID      = 2026-009A
CENTER_NAME    = EARTH
REF_FRAME      = TEME
TIME_SYSTEM    = UTC
MEAN_ELEMENT_THEORY = SGP/SGP4

EPOCH          = 2026-01-25T19:08:59.222688
MEAN_MOTION    = 15.02993812
ECCENTRICITY   = .0099256
INCLINATION    = 97.1800
RA_OF_ASC_NODE = 99.4880
ARG_OF_PERICENTER = 185.8321
MEAN_ANOMALY   = 174.1759

EPHEMERIS_TYPE = 0
CLASSIFICATION_TYPE = U
NORAD_CAT_ID   = 67474
ELEMENT_SET_NO = 999
REV_AT_EPOCH   = 160
BSTAR          = .41132E-3
MEAN_MOTION_DOT = .6103E-4
MEAN_MOTION_DDOT = 0

